start=new Date('2022-08-28T00:00:00.000Z').valueOf();
sats=[{"GP_ID":"211136235","CLASSIFICATION_TYPE":"U","RCS_SIZE":"LARGE","OBJECT_TYPE":"PAYLOAD","APOAPSIS":"579.112","MEAN_MOTION_DOT":"0.00000832","DECAY_DATE":null,"ECCENTRICITY":"0.00029570","RA_OF_ASC_NODE":"287.1022","MEAN_MOTION":"14.96715454","TLE_LINE2":"2 49158  69.9993 287.1022 0002957 257.7182 102.3645 14.96715454 54333","EPOCH":"2022-08-27T15:33:00.219744","NORAD_CAT_ID":"49158","REV_AT_EPOCH":"5433","FILE":"3548882","EPHEMERIS_TYPE":"0","LAUNCH_DATE":"2021-09-14","ELEMENT_SET_NO":"999","MEAN_ELEMENT_THEORY":"SGP4","TIME_SYSTEM":"UTC","SITE":"AFWTR","SEMIMAJOR_AXIS":"6955.190","CENTER_NAME":"EARTH","BSTAR":"0.00008068000000","OBJECT_NAME":"STARLINK-3083","TLE_LINE1":"1 49158U 21082AE  22239.64791921  .00000832  00000-0  80680-4 0  9996","MEAN_MOTION_DDOT":"0.0000000000000","COUNTRY_CODE":"US","PERIOD":"96.211","ARG_OF_PERICENTER":"257.7182","OBJECT_ID":"2021-082AE","INCLINATION":"69.9993","REF_FRAME":"TEME","MEAN_ANOMALY":"102.3645","PERIAPSIS":"574.999"},{"BSTAR":"-0.00002194400000","TLE_LINE1":"1 49159U 21082AF  22239.88568821 -.00000355  00000-0 -21944-4 0  9994","OBJECT_NAME":"STARLINK-3056","CENTER_NAME":"EARTH","INCLINATION":"70.0013","REF_FRAME":"TEME","MEAN_ANOMALY":"111.7810","PERIAPSIS":"569.492","MEAN_MOTION_DDOT":"0.0000000000000","COUNTRY_CODE":"US","OBJECT_ID":"2021-082AF","PERIOD":"96.106","ARG_OF_PERICENTER":"248.2960","ECCENTRICITY":"0.00036560","RA_OF_ASC_NODE":"306.5097","MEAN_MOTION":"14.98338215","GP_ID":"211136767","CLASSIFICATION_TYPE":"U","OBJECT_TYPE":"PAYLOAD","RCS_SIZE":"LARGE","APOAPSIS":"574.573","MEAN_MOTION_DOT":"-0.00000355","DECAY_DATE":null,"FILE":"3548882","EPHEMERIS_TYPE":"0","REV_AT_EPOCH":"5387","NORAD_CAT_ID":"49159","ELEMENT_SET_NO":"999","LAUNCH_DATE":"2021-09-14","MEAN_ELEMENT_THEORY":"SGP4","SITE":"AFWTR","TIME_SYSTEM":"UTC","SEMIMAJOR_AXIS":"6950.167","EPOCH":"2022-08-27T21:15:23.461344","TLE_LINE2":"2 49159  70.0013 306.5097 0003656 248.2960 111.7810 14.98338215 53878"},{"MEAN_MOTION_DDOT":"0.0000000000000","COUNTRY_CODE":"US","PERIOD":"96.107","OBJECT_ID":"2021-082AG","ARG_OF_PERICENTER":"259.0573","MEAN_ANOMALY":"101.0221","PERIAPSIS":"569.800","INCLINATION":"70.0004","REF_FRAME":"TEME","CENTER_NAME":"EARTH","TLE_LINE1":"1 49160U 21082AG  22239.60912149 -.00000589  00000-0 -41602-4 0  9994","OBJECT_NAME":"STARLINK-3095","BSTAR":"-0.00004160200000","EPOCH":"2022-08-27T14:37:08.096736","TLE_LINE2":"2 49160  70.0004 307.2045 0003249 259.0573 101.0221 14.98329778 53804","MEAN_ELEMENT_THEORY":"SGP4","SITE":"AFWTR","SEMIMAJOR_AXIS":"6950.194","TIME_SYSTEM":"UTC","FILE":"3548882","REV_AT_EPOCH":"5380","EPHEMERIS_TYPE":"0","NORAD_CAT_ID":"49160","ELEMENT_SET_NO":"999","LAUNCH_DATE":"2021-09-14","APOAPSIS":"574.317","MEAN_MOTION_DOT":"-0.00000589","DECAY_DATE":null,"GP_ID":"211137017","CLASSIFICATION_TYPE":"U","OBJECT_TYPE":"PAYLOAD","RCS_SIZE":"LARGE","MEAN_MOTION":"14.98329778","ECCENTRICITY":"0.00032490","RA_OF_ASC_NODE":"307.2045"},{"BSTAR":"0.00008379600000","OBJECT_NAME":"STARLINK-3080","TLE_LINE1":"1 49161U 21082AH  22239.48036088  .00000907  00000-0  83796-4 0  9992","CENTER_NAME":"EARTH","REF_FRAME":"TEME","INCLINATION":"70.0000","PERIAPSIS":"569.572","MEAN_ANOMALY":"110.9450","PERIOD":"96.106","OBJECT_ID":"2021-082AH","ARG_OF_PERICENTER":"249.1332","MEAN_MOTION_DDOT":"0.0000000000000","COUNTRY_CODE":"US","RA_OF_ASC_NODE":"307.5222","ECCENTRICITY":"0.00035220","MEAN_MOTION":"14.98342245","OBJECT_TYPE":"PAYLOAD","RCS_SIZE":"LARGE","CLASSIFICATION_TYPE":"U","GP_ID":"211104761","DECAY_DATE":null,"APOAPSIS":"574.468","MEAN_MOTION_DOT":"0.00000907","LAUNCH_DATE":"2021-09-14","ELEMENT_SET_NO":"999","NORAD_CAT_ID":"49161","EPHEMERIS_TYPE":"0","FILE":"3548622","REV_AT_EPOCH":"5379","SITE":"AFWTR","SEMIMAJOR_AXIS":"6950.155","TIME_SYSTEM":"UTC","MEAN_ELEMENT_THEORY":"SGP4","TLE_LINE2":"2 49161  70.0000 307.5222 0003522 249.1332 110.9450 14.98342245 53793","EPOCH":"2022-08-27T11:31:43.180032"},{"COUNTRY_CODE":"US","MEAN_MOTION_DDOT":"0.0000000000000","PERIOD":"96.107","ARG_OF_PERICENTER":"255.1051","OBJECT_ID":"2021-082AJ","INCLINATION":"70.0003","REF_FRAME":"TEME","PERIAPSIS":"569.767","MEAN_ANOMALY":"104.9743","CENTER_NAME":"EARTH","BSTAR":"-0.00005799700000","TLE_LINE1":"1 49162U 21082AJ  22239.47082802 -.00000785  00000-0 -57997-4 0  9997","OBJECT_NAME":"STARLINK-3082","EPOCH":"2022-08-27T11:17:59.540928","TLE_LINE2":"2 49162  70.0003 307.5478 0003293 255.1051 104.9743 14.98330564 53878","EPHEMERIS_TYPE":"0","FILE":"3548622","REV_AT_EPOCH":"5387","NORAD_CAT_ID":"49162","ELEMENT_SET_NO":"999","LAUNCH_DATE":"2021-09-14","MEAN_ELEMENT_THEORY":"SGP4","TIME_SYSTEM":"UTC","SITE":"AFWTR","SEMIMAJOR_AXIS":"6950.191","GP_ID":"211104508","CLASSIFICATION_TYPE":"U","OBJECT_TYPE":"PAYLOAD","RCS_SIZE":"LARGE","APOAPSIS":"574.345","MEAN_MOTION_DOT":"-0.00000785","DECAY_DATE":null,"ECCENTRICITY":"0.00032930","RA_OF_ASC_NODE":"307.5478","MEAN_MOTION":"14.98330564"},{"CLASSIFICATION_TYPE":"U","GP_ID":"211136274","OBJECT_TYPE":"PAYLOAD","RCS_SIZE":"LARGE","MEAN_MOTION_DOT":"0.00050858","APOAPSIS":"577.418","DECAY_DATE":null,"ECCENTRICITY":"0.00029710","RA_OF_ASC_NODE":"286.6155","MEAN_MOTION":"14.97265242","EPOCH":"2022-08-27T20:15:21.333024","TLE_LINE2":"2 49163  70.0015 286.6155 0002971 240.5770 119.5092 14.97265242 54429","FILE":"3548882","EPHEMERIS_TYPE":"0","REV_AT_EPOCH":"5442","NORAD_CAT_ID":"49163","ELEMENT_SET_NO":"999","LAUNCH_DATE":"2021-09-14","MEAN_ELEMENT_THEORY":"SGP4","SITE":"AFWTR","SEMIMAJOR_AXIS":"6953.488","TIME_SYSTEM":"UTC","CENTER_NAME":"EARTH","BSTAR":"0.00435720000000","TLE_LINE1":"1 49163U 21082AK  22239.84399691  .00050858  00000-0  43572-2 0  9992","OBJECT_NAME":"STARLINK-3088","MEAN_MOTION_DDOT":"0.0000000000000","COUNTRY_CODE":"US","OBJECT_ID":"2021-082AK","PERIOD":"96.175","ARG_OF_PERICENTER":"240.5770","INCLINATION":"70.0015","REF_FRAME":"TEME","PERIAPSIS":"573.287","MEAN_ANOMALY":"119.5092"},{"SEMIMAJOR_AXIS":"6953.502","SITE":"AFWTR","TIME_SYSTEM":"UTC","MEAN_ELEMENT_THEORY":"SGP4","LAUNCH_DATE":"2021-09-14","ELEMENT_SET_NO":"999","NORAD_CAT_ID":"49164","EPHEMERIS_TYPE":"0","FILE":"3548882","REV_AT_EPOCH":"5441","TLE_LINE2":"2 49164  69.9990 286.9611 0002040 235.8923 124.2042 14.97260513 54416","EPOCH":"2022-08-27T16:48:57.947616","MEAN_MOTION":"14.97260513","RA_OF_ASC_NODE":"286.9611","ECCENTRICITY":"0.00020400","DECAY_DATE":null,"APOAPSIS":"576.786","MEAN_MOTION_DOT":"0.00067732","OBJECT_TYPE":"PAYLOAD","RCS_SIZE":"LARGE","GP_ID":"211136524","CLASSIFICATION_TYPE":"U","MEAN_ANOMALY":"124.2042","PERIAPSIS":"573.949","REF_FRAME":"TEME","INCLINATION":"69.9990","ARG_OF_PERICENTER":"235.8923","PERIOD":"96.176","OBJECT_ID":"2021-082AL","MEAN_MOTION_DDOT":"0.0000000000000","COUNTRY_CODE":"US","OBJECT_NAME":"STARLINK-3106","TLE_LINE1":"1 49164U 21082AL  22239.70067069  .00067732  00000-0  57871-2 0  9995","BSTAR":"0.00578710000000","CENTER_NAME":"EARTH"},{"NORAD_CAT_ID":"49165","REV_AT_EPOCH":"5394","FILE":"3548882","EPHEMERIS_TYPE":"0","LAUNCH_DATE":"2021-09-14","ELEMENT_SET_NO":"999","MEAN_ELEMENT_THEORY":"SGP4","SITE":"AFWTR","TIME_SYSTEM":"UTC","SEMIMAJOR_AXIS":"6950.174","TLE_LINE2":"2 49165  70.0006 307.0560 0003195 248.7665 111.3152 14.98336255 53948","EPOCH":"2022-08-27T15:59:31.989408","ECCENTRICITY":"0.00031950","RA_OF_ASC_NODE":"307.0560","MEAN_MOTION":"14.98336255","CLASSIFICATION_TYPE":"U","GP_ID":"211137762","OBJECT_TYPE":"PAYLOAD","RCS_SIZE":"LARGE","APOAPSIS":"574.259","MEAN_MOTION_DOT":"-0.00002542","DECAY_DATE":null,"INCLINATION":"70.0006","REF_FRAME":"TEME","MEAN_ANOMALY":"111.3152","PERIAPSIS":"569.818","COUNTRY_CODE":"US","MEAN_MOTION_DDOT":"0.0000000000000","ARG_OF_PERICENTER":"248.7665","PERIOD":"96.107","OBJECT_ID":"2021-082AM","BSTAR":"-0.00020531000000","OBJECT_NAME":"STARLINK-3052","TLE_LINE1":"1 49165U 21082AM  22239.66634247 -.00002542  00000-0 -20531-3 0  9993","CENTER_NAME":"EARTH"},{"REF_FRAME":"TEME","INCLINATION":"69.9982","PERIAPSIS":"572.975","MEAN_ANOMALY":"103.5752","ARG_OF_PERICENTER":"256.4961","PERIOD":"96.184","OBJECT_ID":"2021-082AN","MEAN_MOTION_DDOT":"0.0000000000000","COUNTRY_CODE":"US","BSTAR":"0.00463250000000","TLE_LINE1":"1 49166U 21082AN  22239.43836698  .00053922  00000-0  46325-2 0  9997","OBJECT_NAME":"STARLINK-3089","CENTER_NAME":"EARTH","ELEMENT_SET_NO":"999","LAUNCH_DATE":"2021-09-14","FILE":"3548622","REV_AT_EPOCH":"5440","EPHEMERIS_TYPE":"0","NORAD_CAT_ID":"49166","SEMIMAJOR_AXIS":"6953.893","SITE":"AFWTR","TIME_SYSTEM":"UTC","MEAN_ELEMENT_THEORY":"SGP4","EPOCH":"2022-08-27T10:31:14.907072","TLE_LINE2":"2 49166  69.9982 287.6151 0004001 256.4961 103.5752 14.97134386 54401","RA_OF_ASC_NODE":"287.6151","ECCENTRICITY":"0.00040010","MEAN_MOTION":"14.97134386","OBJECT_TYPE":"PAYLOAD","RCS_SIZE":"LARGE","CLASSIFICATION_TYPE":"U","GP_ID":"211105009","DECAY_DATE":null,"APOAPSIS":"578.540","MEAN_MOTION_DOT":"0.00053922"},{"DECAY_DATE":null,"MEAN_MOTION_DOT":"-0.00000005","APOAPSIS":"574.547","RCS_SIZE":"LARGE","OBJECT_TYPE":"PAYLOAD","GP_ID":"211136768","CLASSIFICATION_TYPE":"U","MEAN_MOTION":"14.98328507","RA_OF_ASC_NODE":"307.0701","ECCENTRICITY":"0.00035750","TLE_LINE2":"2 49167  70.0002 307.0701 0003575 237.8197 122.2616 14.98328507 53941","EPOCH":"2022-08-27T15:52:39.958176","SITE":"AFWTR","SEMIMAJOR_AXIS":"6950.198","TIME_SYSTEM":"UTC","MEAN_ELEMENT_THEORY":"SGP4","LAUNCH_DATE":"2021-09-14","ELEMENT_SET_NO":"999","NORAD_CAT_ID":"49167","EPHEMERIS_TYPE":"0","FILE":"3548882","REV_AT_EPOCH":"5394","CENTER_NAME":"EARTH","OBJECT_NAME":"STARLINK-3054","TLE_LINE1":"1 49167U 21082AP  22239.66157359 -.00000005  00000-0  73951-5 0  9996","BSTAR":"0.00000739510000","ARG_OF_PERICENTER":"237.8197","PERIOD":"96.107","OBJECT_ID":"2021-082AP","MEAN_MOTION_DDOT":"0.0000000000000","COUNTRY_CODE":"US","PERIAPSIS":"569.578","MEAN_ANOMALY":"122.2616","REF_FRAME":"TEME","INCLINATION":"70.0002"}];
